#dP2019  4 18  0  0  0.00000000      96 __u+U IGS08 FIT  IAC
## 2049 345600.00000000   900.00000000 58591 0.0000000000000
+   96   C01C02C03C04C05C06C07C08C09C10C11C12C13C14C16E01E02
+        E03E04E05E07E08E09E11E12E13E14E15E18E19E21E24E25E26
+        E27E30E33E36G01G02G03G04G05G06G07G08G09G10G11G12G13
+        G14G15G16G17G18G19G20G21G22G23G24G25G26G27G28G29G30
+        G31G32J01J02J03R01R02R03R04R05R07R08R09R10R11R13R14
+        R15R16R17R18R19R20R21R22R23R24R26  0  0  0  0  0  0
++        12 12 12 12 12  8  8  9  8  8  7  7  8  7  8  4  4
++         4  4  4  4  4  4  4  4  4  4  5  4  4  4  4  4  4
++         4  4  4  4  3  3  3  4  3  3  3  3  3  3  4  3  3
++         3  3  3  3  3  3  3  3  3  3  3  3  3  4  3  4  3
++         3  3  9 10  9  5  5  5  5  5  5  5  5  5  5  6  5
++         5  6  5  5  5  5  5  5  5  6  7  0  0  0  0  0  0
%c M  cc GPS ccc cccc cccc cccc cccc ccccc ccccc ccccc ccccc
%c cc cc ccc ccc cccc cccc cccc cccc ccccc ccccc ccccc ccccc
%f  1.2500000  1.025000000  0.00000000000  0.000000000000000
%f  0.0000000  0.000000000  0.00000000000  0.000000000000000
%i    0    0    0    0      0      0      0      0         0
%i    0    0    0    0      0      0      0      0         0
/* INFORMATION & ANALYSIS CENTER (IAC)            FINAL DATA
/* S/V CLOCKS ARE ALIGNED TO GPS & GLONASS TIME RESPECTIVELY
/* USING THE BROADCAST EPHEMERIS                            
/* PCV:IGS14_2045 OL/AL:FES2004  NONE     YN ORB:CoN CLK:CoN
*  2019 04 18 13  0  0.00000000
PC01 -32307.512810  27082.852550   -156.268963    475.010476
PC02   4409.726560  41947.438436    842.904292    212.973461
PC03 -14827.569659  39483.114899    516.103847    153.093424
PC04 -39630.630674  14390.503482    158.784113   -142.266451
PC05  21872.977162  36036.273065    745.612816   -253.084910
PC06 -25428.687809  30269.923753 -14832.065586    699.635835
PC07 -10614.100847  35378.173746 -19773.862543   -307.057134
PC08 -12447.114652  18338.581012  35941.945390    147.193423
PC09 -11169.465132  29982.611477 -27429.047544    695.614800
PC10   -113.552409  41190.202590  -7864.023700   -674.554425
PC11  13264.075147 -15120.319764 -19312.255676   -107.757716
PC12  27496.430607  -1715.903181   4753.329421    588.932471
PC13   3571.110983  25722.552510  33328.663391   -660.286807
PC14  15434.606220 -20354.897812 -11112.932944    672.217583
PC16 -20690.637461  31201.186792 -19522.662399   -576.940236
PE01  17856.934391  12278.249568  20156.934556   -586.336750
PE02 -17864.611672 -12212.056283 -20198.012146     56.461208
PE03 -19866.936171  -1319.796863  21904.873958   -156.578663
PE04  23120.745021 -16450.108525  -8416.209194   -263.940037
PE05  -4946.927948 -18427.847181  22637.147110     72.016124
PE07 -12811.180579  24682.679700 -10116.087647   -171.053863
PE08 -22933.406239  16720.916779   8391.845377   6370.279953
PE09  12630.603275 -24764.148095  10199.708218   6465.791499
PE11   6088.101348 -15411.636013 -24525.250275   5705.716304
PE12  24757.732410  -5272.645163 -15314.695631   6438.609461
PE13  -6230.561013  15308.436647  24566.260679    385.795308
PE14 -26851.576884   8217.056379  -4089.753262   -533.889207
PE15 -24532.207519   5570.846841  15617.686385    913.406993
PE18  19981.758248 -18274.882643 -11019.419256   -632.758135
PE19  18723.202105   3084.064801 -22708.591217     -6.992984
PE21  11377.628502  27048.783399   3871.891486   -529.679886
PE24   1702.675369 -25903.293049  14189.309743   6126.242705
PE25 -11355.428986 -27067.086703  -3830.996306   1830.877747
PE26  15610.862502  16384.896899  19084.817079   4668.395208
PE27  -1820.641005  25715.922528 -14550.376764    487.478559
PE30 -13880.939102   9605.260843 -24329.922970   4941.435542
PE33  28523.208638   7472.749488   2523.669293   -470.590543
PE36 -15813.003352 -16110.807719 -19143.023277    722.745396
PG01 -22632.360107 -14222.792313    445.726976   -204.481065
PG02   7066.489447  18654.207900  18221.513708   -192.053426
PG03 -12553.551829 -13822.454027  18883.727525    188.274295
PG04 -24369.320309  10433.384162   1692.557450    150.589405
PG05   2720.220000  25949.812316  -4452.084811      1.106504
PG06  -6244.752280  13666.545648  21944.675240    227.711691
PG07 -23022.961875  -4438.806046 -12659.803944     -7.232688
PG08 -11008.933608 -10853.059852 -21584.797070   -140.363281
PG09 -24439.682738   6902.730441   7757.853101    426.716279
PG10  11390.583252 -18358.604278 -15254.522461     69.697893
PG11 -22552.566037 -10372.931006  -9633.507640   -624.124431
PG12  10823.878273  15298.117161  18680.049226    250.185377
PG13   1551.383523  15360.704420 -21720.367529    -67.301053
PG14  13687.001382 -17234.987487  15050.729402    -84.010010
PG15  13866.839576   9608.954825 -20840.728402   -317.738605
PG16   -813.543074 -25619.224110  -6188.818008    -33.569010
PG17 -20523.801178  15051.330185   7837.897922     40.953219
PG18 -17905.554429 -17695.322661  -9167.111074 999999.999999
PG19 -15331.202846  16273.077287  14107.447294   -329.250198
PG20  14504.171719  -9200.270575 -20330.589601    524.063568
PG21  20874.706717  -1098.865962 -15501.876626   -209.954562
PG22 -10861.337161 -20177.524965  13728.132729   -685.871558
PG23 -20496.939330  -3001.442053  17171.735480   -189.727723
PG24  21735.813406  15226.574420  -3427.739842    -64.953231
PG25  14829.456746   1813.783256  21756.542833   -746.978266
PG26   4183.573415 -25608.535210   5184.286372    179.155669
PG27    829.333806 -16340.601264 -20955.225048   -111.273377
PG28 -12571.053709  17295.193488 -15211.283897    767.522148
PG29  23566.163836  -1630.355851  12115.891276    222.533086
PG30 -16712.346809   5917.024673 -19810.357204    -88.743726
PG31   5656.791592 -14383.254730  21557.848948     44.205034
PG32  17976.951890 -17059.760490   9443.878679   -126.961504
PJ01 -29368.456915  27902.499770  16719.111291   -322.267278
PJ02 -19227.495643  21595.249795 -26349.833140      1.617689
PJ03 -30152.831086  28690.854924  11995.682577     -0.302122
PR01  15768.806540 -12752.839958 -15476.087565     42.513262
PR02  11055.009879 -22601.717432   4075.163626    364.306226
PR03   -371.756804 -17200.260710  18859.039984     -6.120953
PR04 -11746.181102  -1261.661381  22629.642749    302.935650
PR05 -15905.779210  14515.881336  13703.114416     26.403095
PR07    612.523636  16931.119895 -19044.605228    -18.482641
PR08  11353.992081   2015.710279 -22695.736317     18.174290
PR09   1918.112498  19493.852097 -16291.974663     65.109734
PR10  11331.598165  22690.393866  -2326.008094     47.924083
PR11  15801.696095  13102.215474  15121.933931    -63.347561
PR13  -1191.852413 -18471.577361  17529.728633    -22.588794
PR14 -11598.325706 -22621.804740   2180.093507     38.053208
PR15 -15719.967969 -13928.725120 -14457.673201    101.414661
PR16 -10821.770005   3305.105778 -22880.965320     10.139510
PR17  -9319.039497  -9967.046883 -21534.434498    221.259874
PR18 -23083.176443  -4719.181999  -9842.022533     -9.918373
PR19 -24363.514746   2432.978439   7165.797540    -26.135105
PR20 -10453.004739   9237.390098  21378.178508   -375.336846
PR21  10000.508050   9795.317981  21330.548841    -43.111562
PR22  24055.832284   3702.764701   7413.661319    -15.031578
PR23  21946.209326  -5085.989847 -11961.776459    222.518946
PR24   8437.100958  -9794.352527 -22007.574939   -179.473996
PR26 -12710.598357   8955.241255  20227.359588    -11.884145
EOF
